{"type":"FeatureCollection","features":[{"type":"Feature","properties":{"bairro":"JARDIM CAVALARI","locais":1,"eleitores":4544},"geometry":{"type":"MultiPolygon","coordinates":[[[[-50.010830816988545,-22.29363839947723],[-49.98545967947105,-22.309271124963132],[-49.96589811386508,-22.255845698957874],[-49.975078661038204,-22.22927356823807],[-49.975144510603776,-22.229240159668798],[-50.010830816988545,-22.29363839947723]]]]}},{"type":"Feature","properties":{"bairro":"JARDIM AMÉRICA","locais":2,"eleitores":4082},"geometry":{"type":"MultiPolygon","coordinates":[[[[-49.99580997309351,-22.189293893320738],[-49.96485573155459,-22.207145216185296],[-49.96460660783635,-22.206736146093252],[-49.959532537703495,-22.204757445145894],[-49.9611941016537,-22.19875502953322],[-49.96499607229292,-22.199383442082638],[-49.97883882451482,-22.188348857442207],[-49.984476464347416,-22.187439523337197],[-49.995225654030826,-22.18860340218277],[-49.99580997309351,-22.189293893320738]]]]}},{"type":"Feature","properties":{"bairro":"PARQUE CECAP AEROPORTO","locais":1,"eleitores":3298},"geometry":{"type":"MultiPolygon","coordinates":[[[[-49.94116018996444,-22.182956874179347],[-49.94089694583824,-22.193302316587282],[-49.940865805259385,-22.193384378690258],[-49.939380351799024,-22.19541026537576],[-49.93258529208089,-22.199433475932647],[-49.9087031623839,-22.205251188116677],[-49.881020321269425,-22.172227420479643],[-49.916344392518084,-22.162511870154724],[-49.935144700363736,-22.174490637200197],[-49.940983867549534,-22.18226095048885],[-49.94116018996444,-22.182956874179347]]]]}},{"type":"Feature","properties":{"bairro":"DISTRITO DE LÁCIO","locais":1,"eleitores":1044},"geometry":{"type":"MultiPolygon","coordinates":[[[[-49.90961460098665,-22.208819986856067],[-49.90791433725423,-22.220458553337078],[-49.89273805606911,-22.246137995410493],[-49.870286240658665,-22.27217936098799],[-49.8691,-22.2704],[-49.8669,-22.2694],[-49.8657,-22.2675],[-49.8663,-22.2663],[-49.865,-22.2656],[-49.8631,-22.2657],[-49.8629,-22.2643],[-49.8615,-22.2629],[-49.8636,-22.259],[-49.864,-22.257],[-49.865,-22.2564],[-49.8671,-22.2533],[-49.8678,-22.2513],[-49.8697,-22.2495],[-49.8702,-22.2473],[-49.871,-22.2466],[-49.8709,-22.2446],[-49.8701,-22.2432],[-49.8699,-22.2415],[-49.8689,-22.2405],[-49.8681,-22.2385],[-49.8683,-22.2368],[-49.8698,-22.234],[-49.87,-22.2316],[-49.8679,-22.2292],[-49.8676,-22.228],[-49.8658,-22.227],[-49.8654,-22.2243],[-49.8632,-22.216],[-49.8632,-22.214],[-49.8663,-22.2087],[-49.8661,-22.2077],[-49.8673,-22.2059],[-49.8684,-22.2021],[-49.8697,-22.1999],[-49.869,-22.1991],[-49.869,-22.1974],[-49.8702,-22.1956],[-49.8705,-22.1939],[-49.87,-22.1928],[-49.8713,-22.1918],[-49.8721,-22.1897],[-49.8734,-22.1883],[-49.8744,-22.1853],[-49.8758,-22.1851],[-49.8771,-22.184],[-49.8775,-22.1828],[-49.8774,-22.1791],[-49.8758,-22.1777],[-49.875,-22.1757],[-49.8755,-22.1723],[-49.87541262152477,-22.170639808970545],[-49.881020321269425,-22.172227420479643],[-49.9087031623839,-22.205251188116677],[-49.90961460098665,-22.208819986856067]]]]}},{"type":"Feature","properties":{"bairro":"DISTRITO DE ROSÁLIA","locais":1,"eleitores":1281},"geometry":{"type":"MultiPolygon","coordinates":[[[[-50.086,-21.9315],[-50.0855,-21.9332],[-50.0827,-21.9368],[-50.0822,-21.9385],[-50.0812,-21.9394],[-50.0792,-21.9425],[-50.0789,-21.9447],[-50.0791,-21.9471],[-50.0782,-21.95],[-50.0778,-21.953],[-50.0758,-21.9544],[-50.0719,-21.9555],[-50.068,-21.9549],[-50.0674,-21.9557],[-50.0677,-21.9577],[-50.0674,-21.9591],[-50.0654,-21.9632],[-50.065,-21.9665],[-50.0623,-21.9728],[-50.0603,-21.9786],[-50.0585,-21.9824],[-50.0586,-21.9852],[-50.0607,-21.9893],[-50.0617,-21.9923],[-50.062,-21.9947],[-50.0618,-21.9966],[-50.0621,-22.0004],[-50.0612,-22.0039],[-50.0591,-22.0051],[-50.0561,-22.0081],[-50.0549,-22.0112],[-50.0523,-22.013],[-50.0509,-22.0146],[-50.0474,-22.0149],[-50.0465,-22.0155],[-50.0446,-22.0204],[-50.0441,-22.0239],[-50.0444,-22.0264],[-50.0435,-22.0288],[-50.0438,-22.0314],[-50.046,-22.0347],[-50.0466,-22.0388],[-50.0485,-22.0431],[-50.049,-22.0454],[-50.0465,-22.0446],[-50.0429,-22.0445],[-50.0389,-22.045],[-50.0353,-22.0447],[-50.0326,-22.0412],[-50.0302,-22.0404],[-50.0302,-22.0384],[-50.0292,-22.0374],[-50.0259,-22.0366],[-50.0236,-22.037],[-50.0161,-22.0322],[-50.0142,-22.0318],[-50.0108,-22.0328],[-50.0096,-22.0326],[-50.0064,-22.0312],[-50.0044,-22.0319],[-50.0065,-22.0352],[-50.007,-22.038],[-50.0084,-22.0388],[-50.0101,-22.0423],[-50.0112,-22.0462],[-50.0128,-22.0506],[-50.0154,-22.0557],[-50.0154,-22.058],[-50.0144,-22.0603],[-50.0156,-22.0647],[-50.0162,-22.0683],[-50.0145,-22.0717],[-50.0144591162867,-22.07206795341969],[-49.99773636312556,-22.075327534190972],[-49.957741108004406,-22.070607306396525],[-49.9543437046542,-22.069024505372667],[-49.941043698765746,-21.953351413468056],[-49.9414,-21.9534],[-49.9435,-21.953],[-49.9447,-21.9539],[-49.9465,-21.9528],[-49.9485,-21.9506],[-49.9484,-21.9489],[-49.9494,-21.9476],[-49.9511,-21.9469],[-49.9517,-21.9454],[-49.9539,-21.945],[-49.956,-21.9439],[-49.9588,-21.9419],[-49.9596,-21.9429],[-49.9608,-21.9421],[-49.9644,-21.9415],[-49.9667,-21.9402],[-49.9682,-21.9385],[-49.9702,-21.9393],[-49.9707,-21.9383],[-49.9724,-21.9393],[-49.9723,-21.9409],[-49.9772,-21.9418],[-49.9791,-21.9426],[-49.9805,-21.9426],[-49.9846,-21.9393],[-49.9857,-21.9373],[-49.9869,-21.9366],[-49.9875,-21.9347],[-49.9888,-21.9334],[-49.9902,-21.9332],[-49.993,-21.9319],[-49.9938,-21.931],[-49.9956,-21.9311],[-49.9977,-21.9298],[-49.9987,-21.9278],[-50.0007,-21.9279],[-50.0017,-21.9287],[-50.0032,-21.9288],[-50.0044,-21.9275],[-50.0078,-21.9253],[-50.0111,-21.9252],[-50.0132,-21.923],[-50.0135,-21.9214],[-50.0159,-21.9186],[-50.0154,-21.9172],[-50.0179,-21.9143],[-50.0171,-21.911],[-50.0156,-21.9103],[-50.0159,-21.9091],[-50.0187,-21.9063],[-50.02,-21.9063],[-50.0213,-21.9034],[-50.0228,-21.9016],[-50.0244,-21.9013],[-50.0243,-21.9002],[-50.0259,-21.8994],[-50.0274,-21.9004],[-50.0296,-21.8985],[-50.0309,-21.8979],[-50.0315,-21.8953],[-50.0289,-21.893],[-50.0275,-21.8908],[-50.0291,-21.8886],[-50.0307,-21.8871],[-50.0318,-21.8867],[-50.0324,-21.888],[-50.0366,-21.8866],[-50.0409,-21.8877],[-50.0416,-21.8861],[-50.0427,-21.8858],[-50.0442,-21.8836],[-50.0457,-21.8847],[-50.0483,-21.8833],[-50.0478,-21.8826],[-50.0498,-21.8805],[-50.0492,-21.8791],[-50.0564,-21.8752],[-50.0581,-21.8755],[-50.0603,-21.8745],[-50.0626,-21.8785],[-50.0636,-21.8817],[-50.0659,-21.8839],[-50.0673,-21.8861],[-50.0671,-21.8875],[-50.0686,-21.8886],[-50.0689,-21.891],[-50.0713,-21.8924],[-50.074,-21.895],[-50.0752,-21.8975],[-50.0788,-21.9022],[-50.0806,-21.9052],[-50.0817,-21.9087],[-50.0826,-21.9096],[-50.0833,-21.912],[-50.0833,-21.914],[-50.0852,-21.9193],[-50.0849,-21.9215],[-50.0859,-21.923],[-50.0859,-21.9241],[-50.085,-21.9256],[-50.086,-21.9315]]]]}},{"type":"Feature","properties":{"bairro":"JARDIM CONTINENTAL","locais":2,"eleitores":3302},"geometry":{"type":"MultiPolygon","coordinates":[[[[-49.94466815952783,-22.239263363696725],[-49.941764933446045,-22.24214802897759],[-49.93377989467966,-22.24259061773138],[-49.930835920071175,-22.245975596152572],[-49.92821304104008,-22.243046767075082],[-49.93174028678254,-22.23969765601508],[-49.93152158790887,-22.23549920439073],[-49.94466815952783,-22.239263363696725]]]]}},{"type":"Feature","properties":{"bairro":"PROLONGAMENTO PALMITAL","locais":7,"eleitores":17018},"geometry":{"type":"MultiPolygon","coordinates":[[[[-49.984476464347416,-22.187439523337197],[-49.97883882451482,-22.188348857442207],[-49.967434340261256,-22.187280218359703],[-49.96637929483509,-22.18745137329007],[-49.958070005491734,-22.184763570387016],[-49.95599252545032,-22.185665352942564],[-49.95508245376841,-22.18596203039845],[-49.95493568357385,-22.189542006970765],[-49.95705056898285,-22.19306880113578],[-49.95860389649331,-22.19325405743014],[-49.95887817040792,-22.193310689079173],[-49.9595840129147,-22.197819888307794],[-49.955550387484294,-22.200373953122966],[-49.95355860947084,-22.194454020033277],[-49.946232019719695,-22.193364657548997],[-49.94089694583824,-22.193302316587282],[-49.94116018996444,-22.182956874179347],[-49.940983867549534,-22.18226095048885],[-49.94814959869497,-22.179187324125294],[-49.95687151806626,-22.179159020965336],[-49.95917444895796,-22.17637531453667],[-49.959958527826096,-22.17620222755438],[-49.9651557122194,-22.17132158176342],[-49.984476464347416,-22.187439523337197]]],[[[-49.95199699104534,-22.21205089447637],[-49.94987458008264,-22.217393414963134],[-49.949279210777476,-22.21778878676989],[-49.94713365085021,-22.218407887908576],[-49.946241287480184,-22.21791535343151],[-49.942598435049405,-22.212524788506936],[-49.94595350093941,-22.20795001720397],[-49.94865477451177,-22.208270361845717],[-49.95199699104534,-22.21205089447637]]]]}},{"type":"Feature","properties":{"bairro":"FRAGATA C","locais":2,"eleitores":3786},"geometry":{"type":"MultiPolygon","coordinates":[[[[-49.94793832249856,-22.233911600671203],[-49.93341446166275,-22.225758134075775],[-49.932307937732304,-22.220819604119495],[-49.939367804782385,-22.220917859727642],[-49.946241287480184,-22.21791535343151],[-49.94713365085021,-22.218407887908576],[-49.946397410741376,-22.226161508848485],[-49.94793832249856,-22.233911600671203]]]]}},{"type":"Feature","properties":{"bairro":"CONJUNTO RESIDENCIAL ALCIR RAINERI","locais":1,"eleitores":3668},"geometry":{"type":"MultiPolygon","coordinates":[[[[-49.955966259047756,-22.16129561754341],[-49.953622494500436,-22.164708503037012],[-49.935144700363736,-22.174490637200197],[-49.916344392518084,-22.162511870154724],[-49.936930973498534,-22.140454578713523],[-49.94990991609713,-22.15258750707405],[-49.955966259047756,-22.16129561754341]]]]}},{"type":"Feature","properties":{"bairro":"NÚCLEO HABITACIONAL NOVA MARÍLIA","locais":4,"eleitores":10276},"geometry":{"type":"MultiPolygon","coordinates":[[[[-49.97931660072723,-22.315969942718244],[-49.96979174220675,-22.32896304128089],[-49.9689,-22.3296],[-49.967,-22.3304],[-49.9637,-22.331],[-49.9616,-22.3307],[-49.9613,-22.3289],[-49.9589,-22.3281],[-49.9563,-22.3277],[-49.9555,-22.3282],[-49.9555,-22.3307],[-49.955,-22.3319],[-49.9528,-22.3336],[-49.9519,-22.336],[-49.9497,-22.3356],[-49.9485,-22.3366],[-49.9473,-22.3392],[-49.946532138226154,-22.339140933709704],[-49.92602401127478,-22.258295726069004],[-49.93424199123417,-22.260176798572264],[-49.94629419352413,-22.2718747189906],[-49.97931660072723,-22.315969942718244]]],[[[-49.93148828270616,-22.25078651074531],[-49.931093908077564,-22.253363073904033],[-49.92484951996716,-22.257256780587397],[-49.91824198634578,-22.255692101027417],[-49.92036413123813,-22.25242923587819],[-49.92195353648147,-22.246394742383867],[-49.92179694815711,-22.24422030629172],[-49.92661846370055,-22.24241843555623],[-49.92821304104008,-22.243046767075082],[-49.930835920071175,-22.245975596152572],[-49.93104815747249,-22.24841563120234],[-49.93144910347905,-22.249270218332164],[-49.9313196942444,-22.250233000604016],[-49.93148828270616,-22.25078651074531]]]]}},{"type":"Feature","properties":{"bairro":"NOVA MARILIA","locais":1,"eleitores":3375},"geometry":{"type":"MultiPolygon","coordinates":[[[[-49.93424199123417,-22.260176798572264],[-49.92602401127478,-22.258295726069004],[-49.92484951996716,-22.257256780587397],[-49.931093908077564,-22.253363073904033],[-49.93424199123417,-22.260176798572264]]]]}},{"type":"Feature","properties":{"bairro":"DISTRITO DE PADRE NÓBREGA","locais":2,"eleitores":5912},"geometry":{"type":"MultiPolygon","coordinates":[[[[-50.057269396379205,-22.121900269116207],[-50.01372162255663,-22.15862013853973],[-50.00945210276624,-22.160993658687072],[-49.99428711756074,-22.170441928077675],[-49.987013068236664,-22.143151645888786],[-49.98720935796313,-22.134479552117003],[-49.99619099406495,-22.08416439130153],[-49.99773636312556,-22.075327534190972],[-50.0144591162867,-22.07206795341969],[-50.014,-22.0762],[-50.0143,-22.0808],[-50.0177,-22.0828],[-50.0186,-22.0844],[-50.0209,-22.0858],[-50.0229,-22.086],[-50.0259,-22.0854],[-50.0285,-22.0858],[-50.0317,-22.0878],[-50.0339,-22.0885],[-50.0389,-22.0883],[-50.0401,-22.0892],[-50.0372,-22.0922],[-50.0366,-22.0942],[-50.0351,-22.0956],[-50.0348,-22.0972],[-50.0374,-22.0995],[-50.0389,-22.1015],[-50.0393,-22.103],[-50.039,-22.1054],[-50.04,-22.1057],[-50.0438,-22.1056],[-50.0455,-22.1059],[-50.0468,-22.107],[-50.047,-22.1089],[-50.0478,-22.1104],[-50.0471,-22.1121],[-50.0477,-22.1138],[-50.0507,-22.115],[-50.0515,-22.1157],[-50.0529,-22.1183],[-50.055,-22.1181],[-50.0564,-22.1197],[-50.0569,-22.1213],[-50.057269396379205,-22.121900269116207]]]]}},{"type":"Feature","properties":{"bairro":"NÚCLEO HABITACIONAL CASTELO BRANCO","locais":1,"eleitores":2942},"geometry":{"type":"MultiPolygon","coordinates":[[[[-49.96637929483509,-22.18745137329007],[-49.95887817040792,-22.193310689079173],[-49.95860389649331,-22.19325405743014],[-49.95599252545032,-22.185665352942564],[-49.958070005491734,-22.184763570387016],[-49.96637929483509,-22.18745137329007]]]]}},{"type":"Feature","properties":{"bairro":"JARDIM TROPICAL","locais":1,"eleitores":4014},"geometry":{"type":"MultiPolygon","coordinates":[[[[-49.93341446166275,-22.225758134075775],[-49.929431248890786,-22.233419580621067],[-49.92777844462219,-22.233886443518188],[-49.921347765252506,-22.233322182020864],[-49.92007427285035,-22.23241537314085],[-49.90791433725423,-22.220458553337078],[-49.90961460098665,-22.208819986856067],[-49.931862852498135,-22.220134408560238],[-49.932307937732304,-22.220819604119495],[-49.93341446166275,-22.225758134075775]]]]}},{"type":"Feature","properties":{"bairro":"N. H. COSTA E SILVA","locais":1,"eleitores":2791},"geometry":{"type":"MultiPolygon","coordinates":[[[[-49.93174028678254,-22.23969765601508],[-49.92821304104008,-22.243046767075082],[-49.92661846370055,-22.24241843555623],[-49.92777844462219,-22.233886443518188],[-49.929431248890786,-22.233419580621067],[-49.93152158790887,-22.23549920439073],[-49.93174028678254,-22.23969765601508]]]]}},{"type":"Feature","properties":{"bairro":"BANZATO","locais":1,"eleitores":3730},"geometry":{"type":"MultiPolygon","coordinates":[[[[-49.94595350093941,-22.20795001720397],[-49.942598435049405,-22.212524788506936],[-49.941914668093396,-22.2125906228042],[-49.93520888244118,-22.204796401965226],[-49.93258529208089,-22.199433475932647],[-49.939380351799024,-22.19541026537576],[-49.94595350093941,-22.20795001720397]]]]}},{"type":"Feature","properties":{"bairro":"JARDIM ESPLANADA","locais":2,"eleitores":4271},"geometry":{"type":"MultiPolygon","coordinates":[[[[-49.921347765252506,-22.233322182020864],[-49.92093710837859,-22.243256839619725],[-49.914260620735135,-22.242661947745376],[-49.89273805606911,-22.246137995410493],[-49.90791433725423,-22.220458553337078],[-49.92007427285035,-22.23241537314085],[-49.921347765252506,-22.233322182020864]]]]}},{"type":"Feature","properties":{"bairro":"SENADOR SALGADO FILHO","locais":3,"eleitores":5642},"geometry":{"type":"MultiPolygon","coordinates":[[[[-49.96632799112153,-22.226548022589014],[-49.957863107939765,-22.232468907279376],[-49.95323246623944,-22.23780918753434],[-49.95170252590078,-22.23712273955784],[-49.95305524230518,-22.22388941124573],[-49.9563951263437,-22.219081616408396],[-49.95816658337435,-22.218675086767202],[-49.96042158826614,-22.21659790632603],[-49.96527806440471,-22.216034801329627],[-49.96611002003998,-22.224838468323764],[-49.96632799112153,-22.226548022589014]]]]}},{"type":"Feature","properties":{"bairro":"ALTO CAFEZAL","locais":2,"eleitores":5246},"geometry":{"type":"MultiPolygon","coordinates":[[[[-49.966840253014894,-22.214154196315015],[-49.96579954825854,-22.215497630514726],[-49.96527806440471,-22.216034801329627],[-49.96042158826614,-22.21659790632603],[-49.95816658337435,-22.218675086767202],[-49.9563951263437,-22.219081616408396],[-49.94987458008264,-22.217393414963134],[-49.95199699104534,-22.21205089447637],[-49.955377744634646,-22.211807558378595],[-49.95648464296956,-22.209252301834027],[-49.96510552450019,-22.209154593197265],[-49.966840253014894,-22.214154196315015]]]]}},{"type":"Feature","properties":{"bairro":"SOMENZARI","locais":2,"eleitores":3417},"geometry":{"type":"MultiPolygon","coordinates":[[[[-49.9611941016537,-22.19875502953322],[-49.959532537703495,-22.204757445145894],[-49.956438931310906,-22.20481405752188],[-49.95648464296956,-22.209252301834027],[-49.955377744634646,-22.211807558378595],[-49.95199699104534,-22.21205089447637],[-49.94865477451177,-22.208270361845717],[-49.95414723212193,-22.20288238251531],[-49.954114136922904,-22.202684615387128],[-49.955550387484294,-22.200373953122966],[-49.9595840129147,-22.197819888307794],[-49.9611941016537,-22.19875502953322]]]]}},{"type":"Feature","properties":{"bairro":"RESIDENCIAL VIDA NOVA MARACÁ II (DISTRITO DE PADRE NÓBREGA)","locais":1,"eleitores":322},"geometry":{"type":"MultiPolygon","coordinates":[[[[-50.06887562748227,-22.21324592043179],[-50.05289602382955,-22.22740019687082],[-50.03402383075252,-22.218068676213463],[-50.02110179023062,-22.20833817950331],[-50.01372162255663,-22.15862013853973],[-50.057269396379205,-22.121900269116207],[-50.0585,-22.1239],[-50.0566,-22.1268],[-50.0555,-22.1301],[-50.0534,-22.1311],[-50.0507,-22.1351],[-50.0485,-22.1354],[-50.0465,-22.138],[-50.0458,-22.142],[-50.0446,-22.143],[-50.0443,-22.1443],[-50.0448,-22.1459],[-50.0436,-22.1464],[-50.0428,-22.1488],[-50.0396,-22.1519],[-50.0397,-22.1542],[-50.0406,-22.156],[-50.0443,-22.1583],[-50.0448,-22.1599],[-50.047,-22.1601],[-50.0494,-22.1582],[-50.0505,-22.159],[-50.0527,-22.163],[-50.0531,-22.1666],[-50.0524,-22.1699],[-50.0511,-22.1727],[-50.0513,-22.1765],[-50.0508,-22.1815],[-50.0509,-22.1838],[-50.0505,-22.1852],[-50.0518,-22.1884],[-50.0544,-22.1901],[-50.0555,-22.1919],[-50.0579,-22.1944],[-50.058,-22.1957],[-50.0603,-22.1996],[-50.0615,-22.2],[-50.0613,-22.2016],[-50.0621,-22.2038],[-50.0643,-22.2055],[-50.0652,-22.208],[-50.0662,-22.2122],[-50.0677,-22.212],[-50.0686,-22.2131],[-50.06887562748227,-22.21324592043179]]]]}},{"type":"Feature","properties":{"bairro":"JARDIM PLANALTO","locais":1,"eleitores":1496},"geometry":{"type":"MultiPolygon","coordinates":[[[[-49.93989451479807,-22.24707908690774],[-49.93797349879294,-22.253328408573292],[-49.93148828270616,-22.25078651074531],[-49.9313196942444,-22.250233000604016],[-49.93144910347905,-22.249270218332164],[-49.939808267947136,-22.246241798977874],[-49.93989451479807,-22.24707908690774]]]]}},{"type":"Feature","properties":{"bairro":"N. H. CHICO MENDES","locais":1,"eleitores":3197},"geometry":{"type":"MultiPolygon","coordinates":[[[[-49.98286034625439,-22.22518446839755],[-49.97809223480003,-22.227451247220223],[-49.96579954825854,-22.215497630514726],[-49.966840253014894,-22.214154196315015],[-49.96983407198148,-22.213764361169122],[-49.98286034625439,-22.22518446839755]]]]}},{"type":"Feature","properties":{"bairro":"PARQUE RESIDENCIAL JULIETA","locais":1,"eleitores":2483},"geometry":{"type":"MultiPolygon","coordinates":[[[[-49.99449126852686,-22.182429967561546],[-49.96729963135445,-22.16262774689602],[-49.987013068236664,-22.143151645888786],[-49.99428711756074,-22.170441928077675],[-49.99449126852686,-22.182429967561546]]]]}},{"type":"Feature","properties":{"bairro":"BARBOSA","locais":1,"eleitores":2054},"geometry":{"type":"MultiPolygon","coordinates":[[[[-49.95305524230518,-22.22388941124573],[-49.95170252590078,-22.23712273955784],[-49.95006651789584,-22.236730175543517],[-49.94793832249856,-22.233911600671203],[-49.946397410741376,-22.226161508848485],[-49.94713365085021,-22.218407887908576],[-49.949279210777476,-22.21778878676989],[-49.95305524230518,-22.22388941124573]]]]}},{"type":"Feature","properties":{"bairro":"PARQUE NOVA ALMEIDA","locais":1,"eleitores":2608},"geometry":{"type":"MultiPolygon","coordinates":[[[[-49.99773636312556,-22.075327534190972],[-49.99619099406495,-22.08416439130153],[-49.98720935796313,-22.134479552117003],[-49.967742094726944,-22.147652935939973],[-49.94990991609713,-22.15258750707405],[-49.936930973498534,-22.140454578713523],[-49.957741108004406,-22.070607306396525],[-49.99773636312556,-22.075327534190972]]]]}},{"type":"Feature","properties":{"bairro":"JARDIM ITAIPÚ","locais":1,"eleitores":3035},"geometry":{"type":"MultiPolygon","coordinates":[[[[-49.95006651789584,-22.236730175543517],[-49.94466815952783,-22.239263363696725],[-49.93152158790887,-22.23549920439073],[-49.929431248890786,-22.233419580621067],[-49.93341446166275,-22.225758134075775],[-49.94793832249856,-22.233911600671203],[-49.95006651789584,-22.236730175543517]]]]}},{"type":"Feature","properties":{"bairro":"VILA SÃO PAULO","locais":1,"eleitores":1406},"geometry":{"type":"MultiPolygon","coordinates":[[[[-49.955550387484294,-22.200373953122966],[-49.954114136922904,-22.202684615387128],[-49.940865805259385,-22.193384378690258],[-49.94089694583824,-22.193302316587282],[-49.946232019719695,-22.193364657548997],[-49.95355860947084,-22.194454020033277],[-49.955550387484294,-22.200373953122966]]]]}},{"type":"Feature","properties":{"bairro":"JARDIM ELDORADO","locais":1,"eleitores":1685},"geometry":{"type":"MultiPolygon","coordinates":[[[[-49.99894067896625,-22.19247051541479],[-49.96983407198148,-22.213764361169122],[-49.966840253014894,-22.214154196315015],[-49.96510552450019,-22.209154593197265],[-49.96485573155459,-22.207145216185296],[-49.99580997309351,-22.189293893320738],[-49.99894067896625,-22.19247051541479]]]]}},{"type":"Feature","properties":{"bairro":"JARDIM TEOTONIO VILELA","locais":2,"eleitores":5361},"geometry":{"type":"MultiPolygon","coordinates":[[[[-49.98545967947105,-22.309271124963132],[-49.98385953395524,-22.310950795498567],[-49.97931660072723,-22.315969942718244],[-49.94629419352413,-22.2718747189906],[-49.93797349879294,-22.253328408573292],[-49.93989451479807,-22.24707908690774],[-49.939808267947136,-22.246241798977874],[-49.941764933446045,-22.24214802897759],[-49.94466815952783,-22.239263363696725],[-49.95006651789584,-22.236730175543517],[-49.95170252590078,-22.23712273955784],[-49.95323246623944,-22.23780918753434],[-49.96589811386508,-22.255845698957874],[-49.98545967947105,-22.309271124963132]]]]}},{"type":"Feature","properties":{"bairro":"JARDIM MARAJO","locais":1,"eleitores":2376},"geometry":{"type":"MultiPolygon","coordinates":[[[[-49.92195353648147,-22.246394742383867],[-49.92036413123813,-22.25242923587819],[-49.91824198634578,-22.255692101027417],[-49.875458689515504,-22.27876733198319],[-49.8754,-22.2782],[-49.8732,-22.2761],[-49.8699,-22.2751],[-49.8709,-22.2731],[-49.870286240658665,-22.27217936098799],[-49.89273805606911,-22.246137995410493],[-49.914260620735135,-22.242661947745376],[-49.92093710837859,-22.243256839619725],[-49.92179694815711,-22.24422030629172],[-49.92195353648147,-22.246394742383867]]]]}},{"type":"Feature","properties":{"bairro":"JARDIM SANTA ANTONIETA","locais":2,"eleitores":7681},"geometry":{"type":"MultiPolygon","coordinates":[[[[-49.995225654030826,-22.18860340218277],[-49.984476464347416,-22.187439523337197],[-49.9651557122194,-22.17132158176342],[-49.963788583315704,-22.164268996226987],[-49.96729963135445,-22.16262774689602],[-49.99449126852686,-22.182429967561546],[-49.995225654030826,-22.18860340218277]]],[[[-49.967742094726944,-22.147652935939973],[-49.956924128715826,-22.16144093367929],[-49.955966259047756,-22.16129561754341],[-49.94990991609713,-22.15258750707405],[-49.967742094726944,-22.147652935939973]]]]}},{"type":"Feature","properties":{"bairro":"CENTRO","locais":1,"eleitores":954},"geometry":{"type":"MultiPolygon","coordinates":[[[[-49.9563951263437,-22.219081616408396],[-49.95305524230518,-22.22388941124573],[-49.949279210777476,-22.21778878676989],[-49.94987458008264,-22.217393414963134],[-49.9563951263437,-22.219081616408396]]]]}},{"type":"Feature","properties":{"bairro":"JARDIM MARIA IZABEL","locais":2,"eleitores":6321},"geometry":{"type":"MultiPolygon","coordinates":[[[[-49.941914668093396,-22.2125906228042],[-49.93648263269271,-22.215521831557147],[-49.931862852498135,-22.220134408560238],[-49.90961460098665,-22.208819986856067],[-49.9087031623839,-22.205251188116677],[-49.93258529208089,-22.199433475932647],[-49.93520888244118,-22.204796401965226],[-49.941914668093396,-22.2125906228042]]]]}},{"type":"Feature","properties":{"bairro":"C. H. VILA DOS COMERCIÁRIOS II","locais":1,"eleitores":3137},"geometry":{"type":"MultiPolygon","coordinates":[[[[-49.97809223480003,-22.227451247220223],[-49.975144510603776,-22.229240159668798],[-49.975078661038204,-22.22927356823807],[-49.96632799112153,-22.226548022589014],[-49.96611002003998,-22.224838468323764],[-49.96527806440471,-22.216034801329627],[-49.96579954825854,-22.215497630514726],[-49.97809223480003,-22.227451247220223]]]]}},{"type":"Feature","properties":{"bairro":"MIRANTE","locais":1,"eleitores":1723},"geometry":{"type":"MultiPolygon","coordinates":[[[[-49.975078661038204,-22.22927356823807],[-49.96589811386508,-22.255845698957874],[-49.95323246623944,-22.23780918753434],[-49.957863107939765,-22.232468907279376],[-49.96632799112153,-22.226548022589014],[-49.975078661038204,-22.22927356823807]]]]}},{"type":"Feature","properties":{"bairro":"JARDIM AMALIA","locais":1,"eleitores":2619},"geometry":{"type":"MultiPolygon","coordinates":[[[[-49.94629419352413,-22.2718747189906],[-49.93424199123417,-22.260176798572264],[-49.931093908077564,-22.253363073904033],[-49.93148828270616,-22.25078651074531],[-49.93797349879294,-22.253328408573292],[-49.94629419352413,-22.2718747189906]]]]}},{"type":"Feature","properties":{"bairro":"PARQUE SÃO JORGE","locais":1,"eleitores":2936},"geometry":{"type":"MultiPolygon","coordinates":[[[[-49.92777844462219,-22.233886443518188],[-49.92661846370055,-22.24241843555623],[-49.92179694815711,-22.24422030629172],[-49.92093710837859,-22.243256839619725],[-49.921347765252506,-22.233322182020864],[-49.92777844462219,-22.233886443518188]]]]}},{"type":"Feature","properties":{"bairro":"DISTRITO DE AMADEU AMARAL","locais":1,"eleitores":259},"geometry":{"type":"MultiPolygon","coordinates":[[[[-50.1294,-22.417],[-50.1275,-22.4209],[-50.1261,-22.4222],[-50.1235,-22.4222],[-50.1184,-22.4199],[-50.1159,-22.418],[-50.1147,-22.4161],[-50.1135,-22.4155],[-50.1107,-22.4151],[-50.1072,-22.4155],[-50.105,-22.4173],[-50.1036,-22.4217],[-50.1045,-22.4247],[-50.1042,-22.4255],[-50.1016,-22.4272],[-50.1012,-22.4285],[-50.1019,-22.4304],[-50.1006,-22.4331],[-50.1011,-22.4355],[-50.1009,-22.4366],[-50.0986,-22.4399],[-50.0964,-22.4419],[-50.0954,-22.4437],[-50.0927,-22.4444],[-50.0916,-22.4455],[-50.0913,-22.4471],[-50.0914,-22.4494],[-50.0909,-22.4504],[-50.0883,-22.4517],[-50.0837,-22.4563],[-50.0816,-22.4566],[-50.0793,-22.4596],[-50.0789,-22.461],[-50.077,-22.4624],[-50.0774,-22.4644],[-50.0753,-22.4656],[-50.0759,-22.4685],[-50.0752,-22.4702],[-50.0754,-22.4716],[-50.0745,-22.4731],[-50.0732,-22.4793],[-50.0721,-22.4808],[-50.0723,-22.482],[-50.0709,-22.4846],[-50.0712,-22.4864],[-50.0697,-22.4885],[-50.0703,-22.491],[-50.0692,-22.493],[-50.0675,-22.4934],[-50.0668,-22.4944],[-50.0642,-22.4957],[-50.0634,-22.4976],[-50.0607,-22.4989],[-50.0605,-22.4962],[-50.0588,-22.4939],[-50.0573,-22.4925],[-50.0567,-22.4909],[-50.0554,-22.4895],[-50.0536,-22.4865],[-50.0521,-22.4865],[-50.0511,-22.4879],[-50.0475,-22.4885],[-50.0445,-22.4882],[-50.0424,-22.4894],[-50.039,-22.4893],[-50.0379,-22.4881],[-50.0366,-22.4848],[-50.0355,-22.4838],[-50.0324,-22.4831],[-50.0302,-22.4823],[-50.0233,-22.4825],[-50.0221,-22.4818],[-50.0232,-22.48],[-50.0309,-22.4755],[-50.0335,-22.4724],[-50.0348,-22.4681],[-50.0374,-22.4654],[-50.0379,-22.4631],[-50.0388,-22.4612],[-50.0405,-22.4592],[-50.0405,-22.4563],[-50.04,-22.4553],[-50.0384,-22.4545],[-50.0333,-22.4543],[-50.0335,-22.4535],[-50.0326,-22.4513],[-50.0313,-22.4505],[-50.0313,-22.4477],[-50.03,-22.4473],[-50.0305,-22.4458],[-50.0286,-22.4436],[-50.0279,-22.4414],[-50.028,-22.44],[-50.0258,-22.4391],[-50.0253,-22.436],[-50.0237,-22.4363],[-50.0218,-22.4348],[-50.0185,-22.4336],[-50.0176,-22.4316],[-50.0155,-22.4295],[-50.0144,-22.4267],[-50.0127,-22.4254],[-50.0106,-22.4243],[-50.0083,-22.4222],[-50.0058,-22.4212],[-50.0038,-22.419],[-50.0026,-22.4166],[-50,-22.4146],[-49.9988,-22.4131],[-49.998,-22.409],[-49.9968,-22.4085],[-49.9946,-22.4089],[-49.9923,-22.4111],[-49.9913,-22.4115],[-49.9881,-22.4098],[-49.9865,-22.4077],[-49.985,-22.4073],[-49.9802,-22.4085],[-49.976,-22.4084],[-49.9742,-22.4088],[-49.9694,-22.4089],[-49.9685,-22.4082],[-49.9675,-22.4048],[-49.9667,-22.4035],[-49.963,-22.4003],[-49.9639,-22.3985],[-49.9674,-22.3942],[-49.9684,-22.3914],[-49.9693,-22.3877],[-49.9685,-22.3829],[-49.9699,-22.3794],[-49.9712,-22.3771],[-49.9727,-22.3759],[-49.9737,-22.3725],[-49.9755,-22.3704],[-49.9755,-22.367],[-49.9745,-22.3632],[-49.9745,-22.36],[-49.9747,-22.3575],[-49.9762,-22.3555],[-49.9772,-22.3521],[-49.9768,-22.3503],[-49.9778,-22.3492],[-49.979,-22.3459],[-49.979,-22.3443],[-49.98,-22.3418],[-49.9814,-22.3398],[-49.9817,-22.3381],[-49.9812,-22.3354],[-49.9831,-22.3311],[-49.9829,-22.3293],[-49.9818,-22.3283],[-49.977,-22.3275],[-49.9737,-22.3274],[-49.971,-22.3281],[-49.96979174220675,-22.32896304128089],[-49.97931660072723,-22.315969942718244],[-49.98385953395524,-22.310950795498567],[-49.98545967947105,-22.309271124963132],[-50.010830816988545,-22.29363839947723],[-50.03960129900707,-22.27629957067994],[-50.12097363827964,-22.345463180860182],[-50.1209,-22.3455],[-50.1189,-22.3457],[-50.1151,-22.3474],[-50.1133,-22.3509],[-50.1114,-22.3519],[-50.1107,-22.3534],[-50.1092,-22.3543],[-50.1072,-22.3568],[-50.1045,-22.3586],[-50.1036,-22.3601],[-50.0995,-22.3637],[-50.1006,-22.3644],[-50.1031,-22.3644],[-50.1043,-22.3649],[-50.1055,-22.3667],[-50.111,-22.3691],[-50.1116,-22.3699],[-50.1108,-22.3731],[-50.1108,-22.3749],[-50.1117,-22.3761],[-50.114,-22.3772],[-50.1165,-22.3774],[-50.1178,-22.3789],[-50.1172,-22.3801],[-50.1178,-22.3837],[-50.1168,-22.3869],[-50.1157,-22.389],[-50.1166,-22.3903],[-50.1193,-22.3921],[-50.1195,-22.3945],[-50.1202,-22.3955],[-50.1203,-22.397],[-50.1232,-22.3974],[-50.1264,-22.3994],[-50.1253,-22.4004],[-50.1246,-22.402],[-50.1255,-22.4053],[-50.1264,-22.4065],[-50.1266,-22.4113],[-50.1272,-22.4133],[-50.1289,-22.4155],[-50.1294,-22.417]]]]}},{"type":"Feature","properties":{"bairro":"JARDIM MONTE CASTELO","locais":1,"eleitores":584},"geometry":{"type":"MultiPolygon","coordinates":[[[[-49.941764933446045,-22.24214802897759],[-49.939808267947136,-22.246241798977874],[-49.93144910347905,-22.249270218332164],[-49.93104815747249,-22.24841563120234],[-49.930835920071175,-22.245975596152572],[-49.93377989467966,-22.24259061773138],[-49.941764933446045,-22.24214802897759]]]]}},{"type":"Feature","properties":{"bairro":"NÚCLEO HABITACIONAL PRES. JÂNIO DA SILVA QUADROS","locais":2,"eleitores":3546},"geometry":{"type":"MultiPolygon","coordinates":[[[[-49.95917444895796,-22.17637531453667],[-49.95687151806626,-22.179159020965336],[-49.94814959869497,-22.179187324125294],[-49.940983867549534,-22.18226095048885],[-49.935144700363736,-22.174490637200197],[-49.953622494500436,-22.164708503037012],[-49.95432134074707,-22.172275444666607],[-49.95917444895796,-22.17637531453667]]]]}},{"type":"Feature","properties":{"bairro":"JARDIM SANCHO FLORO DA COSTA","locais":1,"eleitores":5137},"geometry":{"type":"MultiPolygon","coordinates":[[[[-49.98720935796313,-22.134479552117003],[-49.987013068236664,-22.143151645888786],[-49.96729963135445,-22.16262774689602],[-49.963788583315704,-22.164268996226987],[-49.956924128715826,-22.16144093367929],[-49.967742094726944,-22.147652935939973],[-49.98720935796313,-22.134479552117003]]]]}},{"type":"Feature","properties":{"bairro":"FRANCISCO DE ABREU FERNANDES","locais":1,"eleitores":2692},"geometry":{"type":"MultiPolygon","coordinates":[[[[-49.95414723212193,-22.20288238251531],[-49.94865477451177,-22.208270361845717],[-49.94595350093941,-22.20795001720397],[-49.939380351799024,-22.19541026537576],[-49.940865805259385,-22.193384378690258],[-49.954114136922904,-22.202684615387128],[-49.95414723212193,-22.20288238251531]]]]}},{"type":"Feature","properties":{"bairro":"CASCATA","locais":1,"eleitores":1600},"geometry":{"type":"MultiPolygon","coordinates":[[[[-49.946241287480184,-22.21791535343151],[-49.939367804782385,-22.220917859727642],[-49.932307937732304,-22.220819604119495],[-49.931862852498135,-22.220134408560238],[-49.93648263269271,-22.215521831557147],[-49.941914668093396,-22.2125906228042],[-49.942598435049405,-22.212524788506936],[-49.946241287480184,-22.21791535343151]]]]}},{"type":"Feature","properties":{"bairro":"PAULISTA","locais":1,"eleitores":1854},"geometry":{"type":"MultiPolygon","coordinates":[[[[-49.96510552450019,-22.209154593197265],[-49.95648464296956,-22.209252301834027],[-49.956438931310906,-22.20481405752188],[-49.959532537703495,-22.204757445145894],[-49.96460660783635,-22.206736146093252],[-49.96485573155459,-22.207145216185296],[-49.96510552450019,-22.209154593197265]]]]}},{"type":"Feature","properties":{"bairro":"NÚCLEO HABITACIONAL JUSCELINO KUBITSCHEK","locais":1,"eleitores":2807},"geometry":{"type":"MultiPolygon","coordinates":[[[[-49.9651557122194,-22.17132158176342],[-49.959958527826096,-22.17620222755438],[-49.95917444895796,-22.17637531453667],[-49.95432134074707,-22.172275444666607],[-49.953622494500436,-22.164708503037012],[-49.955966259047756,-22.16129561754341],[-49.956924128715826,-22.16144093367929],[-49.963788583315704,-22.164268996226987],[-49.9651557122194,-22.17132158176342]]]]}},{"type":"Feature","properties":{"bairro":"N. H. JOSÉ TERUEL MARTINEZ","locais":1,"eleitores":2523},"geometry":{"type":"MultiPolygon","coordinates":[[[[-50.03402383075252,-22.218068676213463],[-49.98286034625439,-22.22518446839755],[-49.96983407198148,-22.213764361169122],[-49.99894067896625,-22.19247051541479],[-50.02110179023062,-22.20833817950331],[-50.03402383075252,-22.218068676213463]]]]}},{"type":"Feature","properties":{"bairro":"JARDIM DOMINGOS DE LÉO","locais":1,"eleitores":158},"geometry":{"type":"MultiPolygon","coordinates":[[[[-49.946532138226154,-22.339140933709704],[-49.946,-22.3391],[-49.9442,-22.3366],[-49.9431,-22.336],[-49.9409,-22.3365],[-49.9396,-22.3347],[-49.9364,-22.3367],[-49.9364,-22.3349],[-49.9346,-22.3352],[-49.9311,-22.3315],[-49.9295,-22.3306],[-49.9265,-22.3307],[-49.925,-22.3313],[-49.9237,-22.331],[-49.9218,-22.3325],[-49.9212,-22.3344],[-49.9198,-22.3354],[-49.9178,-22.3357],[-49.9164,-22.3349],[-49.9145,-22.3351],[-49.9132,-22.3359],[-49.9086,-22.3346],[-49.9043,-22.3326],[-49.9045,-22.331],[-49.9035,-22.3297],[-49.9047,-22.3266],[-49.904,-22.3252],[-49.9023,-22.3254],[-49.9009,-22.3232],[-49.902,-22.3226],[-49.9019,-22.321],[-49.9004,-22.3191],[-49.898,-22.3191],[-49.897,-22.3175],[-49.8959,-22.3179],[-49.8958,-22.3161],[-49.8929,-22.3157],[-49.8914,-22.313],[-49.89,-22.3121],[-49.8892,-22.3102],[-49.8892,-22.3064],[-49.8866,-22.303],[-49.8847,-22.3008],[-49.8842,-22.2983],[-49.8822,-22.2979],[-49.8827,-22.2954],[-49.8801,-22.2951],[-49.8816,-22.2931],[-49.8809,-22.2913],[-49.8807,-22.2895],[-49.8812,-22.2879],[-49.8807,-22.2869],[-49.8784,-22.2861],[-49.8784,-22.2842],[-49.8763,-22.2844],[-49.8751,-22.2838],[-49.875,-22.2815],[-49.8757,-22.2811],[-49.875458689515504,-22.27876733198319],[-49.91824198634578,-22.255692101027417],[-49.92484951996716,-22.257256780587397],[-49.92602401127478,-22.258295726069004],[-49.946532138226154,-22.339140933709704]]]]}},{"type":"Feature","properties":{"bairro":"POLON","locais":1,"eleitores":2931},"geometry":{"type":"MultiPolygon","coordinates":[[[[-49.97883882451482,-22.188348857442207],[-49.96499607229292,-22.199383442082638],[-49.9611941016537,-22.19875502953322],[-49.9595840129147,-22.197819888307794],[-49.95887817040792,-22.193310689079173],[-49.96637929483509,-22.18745137329007],[-49.967434340261256,-22.187280218359703],[-49.97883882451482,-22.188348857442207]]]]}},{"type":"Feature","properties":{"bairro":"DISTRITO DE AVENCAS","locais":1,"eleitores":775},"geometry":{"type":"MultiPolygon","coordinates":[[[[-50.1502,-22.2624],[-50.1487,-22.2668],[-50.1487,-22.2688],[-50.1466,-22.2712],[-50.1469,-22.273],[-50.1448,-22.2751],[-50.1433,-22.2751],[-50.1408,-22.2759],[-50.1389,-22.2791],[-50.1358,-22.2807],[-50.1352,-22.2818],[-50.1329,-22.2832],[-50.1312,-22.2834],[-50.1292,-22.2852],[-50.1271,-22.286],[-50.126,-22.2869],[-50.1277,-22.2888],[-50.1287,-22.2886],[-50.1293,-22.2899],[-50.1309,-22.291],[-50.1292,-22.2926],[-50.1294,-22.2937],[-50.1283,-22.295],[-50.1292,-22.2959],[-50.1275,-22.2981],[-50.1288,-22.2988],[-50.1296,-22.3007],[-50.1284,-22.303],[-50.1291,-22.3059],[-50.1289,-22.3091],[-50.1309,-22.3109],[-50.1323,-22.3111],[-50.1329,-22.3128],[-50.1328,-22.3159],[-50.1321,-22.3179],[-50.1342,-22.3193],[-50.1348,-22.3203],[-50.1364,-22.3207],[-50.137,-22.3229],[-50.1384,-22.3236],[-50.142,-22.3235],[-50.1433,-22.3241],[-50.1437,-22.3256],[-50.1417,-22.3265],[-50.1408,-22.328],[-50.1421,-22.3301],[-50.1409,-22.3322],[-50.1385,-22.3336],[-50.1378,-22.3352],[-50.1386,-22.3364],[-50.1377,-22.3378],[-50.136,-22.3386],[-50.1351,-22.3403],[-50.1329,-22.3409],[-50.1317,-22.3397],[-50.1294,-22.3404],[-50.1281,-22.3414],[-50.1247,-22.3425],[-50.1235,-22.3442],[-50.12097363827964,-22.345463180860182],[-50.03960129900707,-22.27629957067994],[-50.05289602382955,-22.22740019687082],[-50.06887562748227,-22.21324592043179],[-50.0703,-22.214],[-50.0715,-22.2154],[-50.0716,-22.2173],[-50.073,-22.2178],[-50.0744,-22.2169],[-50.0791,-22.2184],[-50.0813,-22.2204],[-50.0833,-22.2207],[-50.0845,-22.2201],[-50.0876,-22.2221],[-50.0894,-22.2219],[-50.0906,-22.2211],[-50.0914,-22.223],[-50.0928,-22.2241],[-50.0938,-22.2259],[-50.0959,-22.2262],[-50.0998,-22.2287],[-50.1007,-22.2309],[-50.1035,-22.2329],[-50.1063,-22.2342],[-50.1078,-22.2342],[-50.1085,-22.2356],[-50.1087,-22.238],[-50.1118,-22.2388],[-50.1126,-22.2398],[-50.1135,-22.2435],[-50.1164,-22.2445],[-50.1188,-22.2446],[-50.1206,-22.2459],[-50.1254,-22.251],[-50.1279,-22.2523],[-50.1312,-22.2528],[-50.134,-22.2549],[-50.1362,-22.2544],[-50.1385,-22.2555],[-50.1387,-22.2571],[-50.1408,-22.2576],[-50.1422,-22.2591],[-50.1442,-22.2579],[-50.1472,-22.2585],[-50.1472,-22.26],[-50.1485,-22.2597],[-50.1499,-22.2605],[-50.1502,-22.2624]]]]}},{"type":"Feature","properties":{"bairro":"RESIDENCIAL SALVADOR BASSALOBRE (PADRE NOBREGA)","locais":1,"eleitores":779},"geometry":{"type":"MultiPolygon","coordinates":[[[[-50.02110179023062,-22.20833817950331],[-49.99894067896625,-22.19247051541479],[-49.99580997309351,-22.189293893320738],[-49.995225654030826,-22.18860340218277],[-49.99449126852686,-22.182429967561546],[-49.99428711756074,-22.170441928077675],[-50.00945210276624,-22.160993658687072],[-50.01372162255663,-22.15862013853973],[-50.02110179023062,-22.20833817950331]]]]}},{"type":"Feature","properties":{"bairro":"NÚCLEO HBITACIONAL CASTELO BRANCO","locais":1,"eleitores":1486},"geometry":{"type":"MultiPolygon","coordinates":[[[[-49.95860389649331,-22.19325405743014],[-49.95705056898285,-22.19306880113578],[-49.95493568357385,-22.189542006970765],[-49.95508245376841,-22.18596203039845],[-49.95599252545032,-22.185665352942564],[-49.95860389649331,-22.19325405743014]]]]}},{"type":"Feature","properties":{"bairro":"DISTRITO DE DIRCEU","locais":1,"eleitores":191},"geometry":{"type":"MultiPolygon","coordinates":[[[[-49.957741108004406,-22.070607306396525],[-49.936930973498534,-22.140454578713523],[-49.916344392518084,-22.162511870154724],[-49.881020321269425,-22.172227420479643],[-49.87541262152477,-22.170639808970545],[-49.8754,-22.1704],[-49.876,-22.1698],[-49.8755,-22.1679],[-49.8766,-22.1671],[-49.8764,-22.1656],[-49.8779,-22.163],[-49.8805,-22.1603],[-49.8808,-22.1577],[-49.8815,-22.1564],[-49.8847,-22.1548],[-49.8869,-22.1504],[-49.8895,-22.1497],[-49.8903,-22.1486],[-49.8904,-22.1465],[-49.8924,-22.1454],[-49.8934,-22.1426],[-49.891,-22.1428],[-49.8886,-22.1422],[-49.8881,-22.1415],[-49.8841,-22.1399],[-49.8813,-22.1402],[-49.8802,-22.1399],[-49.878,-22.1384],[-49.8754,-22.1387],[-49.8721,-22.1384],[-49.8701,-22.1377],[-49.8693,-22.1367],[-49.8691,-22.1342],[-49.868,-22.1329],[-49.8643,-22.1323],[-49.8627,-22.1293],[-49.863,-22.1275],[-49.8624,-22.1251],[-49.8596,-22.1218],[-49.858,-22.1178],[-49.8568,-22.114],[-49.8563,-22.1098],[-49.8549,-22.1075],[-49.8538,-22.1064],[-49.8532,-22.1017],[-49.8522,-22.1001],[-49.85,-22.0986],[-49.8495,-22.0974],[-49.849,-22.0959],[-49.8505,-22.0938],[-49.8476,-22.092],[-49.8463,-22.0907],[-49.8431,-22.0854],[-49.8411,-22.0845],[-49.8403,-22.0802],[-49.8404,-22.0788],[-49.8379,-22.077],[-49.834,-22.0761],[-49.8335,-22.0741],[-49.8317,-22.0735],[-49.8273,-22.0705],[-49.8257,-22.0697],[-49.8258,-22.0684],[-49.82539723732896,-22.06784620132731],[-49.9543437046542,-22.069024505372667],[-49.957741108004406,-22.070607306396525]]]]}},{"type":"Feature","properties":{"bairro":"VEREADOR EDUARDO ANDRADE REIS","locais":1,"eleitores":287},"geometry":{"type":"MultiPolygon","coordinates":[[[[-50.05289602382955,-22.22740019687082],[-50.03960129900707,-22.27629957067994],[-50.010830816988545,-22.29363839947723],[-49.975144510603776,-22.229240159668798],[-49.97809223480003,-22.227451247220223],[-49.98286034625439,-22.22518446839755],[-50.03402383075252,-22.218068676213463],[-50.05289602382955,-22.22740019687082]]]]}},{"type":"Feature","properties":{"bairro":"FAZENDA DO ESTADO","locais":1,"eleitores":201},"geometry":{"type":"MultiPolygon","coordinates":[[[[-49.9543437046542,-22.069024505372667],[-49.82539723732896,-22.06784620132731],[-49.825,-22.0673],[-49.8198,-22.0644],[-49.8147,-22.0638],[-49.8127,-22.0644],[-49.8078,-22.062],[-49.8068,-22.0627],[-49.8038,-22.06],[-49.8009,-22.0586],[-49.7999,-22.0587],[-49.7981,-22.058],[-49.7975,-22.0563],[-49.7945,-22.0538],[-49.7924,-22.0532],[-49.7907,-22.0499],[-49.789,-22.0483],[-49.7873,-22.0479],[-49.7862,-22.0454],[-49.7813,-22.0463],[-49.7783,-22.046],[-49.7753,-22.0465],[-49.7734,-22.045],[-49.7707,-22.0449],[-49.7683,-22.0467],[-49.7679,-22.0451],[-49.7687,-22.0432],[-49.7704,-22.043],[-49.7732,-22.0434],[-49.7771,-22.043],[-49.7775,-22.04],[-49.778,-22.0389],[-49.7801,-22.038],[-49.7819,-22.0385],[-49.7843,-22.0383],[-49.7862,-22.0367],[-49.7881,-22.034],[-49.7882,-22.0324],[-49.7902,-22.0285],[-49.793,-22.0265],[-49.7945,-22.0266],[-49.7953,-22.0253],[-49.7996,-22.0223],[-49.8026,-22.0169],[-49.8036,-22.0166],[-49.8067,-22.0139],[-49.8097,-22.0106],[-49.8099,-22.0094],[-49.8126,-22.005],[-49.8137,-22.0045],[-49.8143,-22.0032],[-49.8168,-22.0032],[-49.8181,-22.0021],[-49.8181,-22.0009],[-49.8225,-22.0021],[-49.8249,-22.0015],[-49.8271,-21.9999],[-49.8289,-21.9997],[-49.8306,-21.9981],[-49.832,-21.9979],[-49.8322,-21.9956],[-49.834,-21.9953],[-49.8359,-21.9937],[-49.838,-21.9933],[-49.8392,-21.9913],[-49.8415,-21.9912],[-49.8433,-21.9897],[-49.8452,-21.9906],[-49.8473,-21.9898],[-49.8525,-21.9901],[-49.8541,-21.9913],[-49.8581,-21.9885],[-49.8605,-21.9877],[-49.863,-21.9864],[-49.865,-21.9848],[-49.8664,-21.9842],[-49.8685,-21.9846],[-49.8692,-21.982],[-49.8703,-21.9803],[-49.8721,-21.9802],[-49.8736,-21.9794],[-49.8748,-21.977],[-49.8777,-21.9752],[-49.8777,-21.9735],[-49.8806,-21.9723],[-49.8821,-21.97],[-49.8844,-21.9706],[-49.8851,-21.9715],[-49.8877,-21.9695],[-49.8882,-21.9683],[-49.89,-21.9666],[-49.8916,-21.9657],[-49.8948,-21.9666],[-49.8968,-21.9667],[-49.8978,-21.9659],[-49.9,-21.9654],[-49.9012,-21.9637],[-49.905,-21.9635],[-49.9077,-21.9628],[-49.9079,-21.9613],[-49.9088,-21.9599],[-49.9108,-21.9597],[-49.9121,-21.9587],[-49.913,-21.9598],[-49.9151,-21.9605],[-49.9157,-21.9584],[-49.9192,-21.9575],[-49.9211,-21.9563],[-49.9225,-21.9561],[-49.9247,-21.9567],[-49.9277,-21.9564],[-49.929,-21.9559],[-49.9313,-21.9558],[-49.933,-21.9544],[-49.9344,-21.9545],[-49.9356,-21.9538],[-49.9386,-21.9536],[-49.9392,-21.9531],[-49.941043698765746,-21.953351413468056],[-49.9543437046542,-22.069024505372667]]]]}}]}